#dP2024  6  2  0  0  0.00000000      96 __u+U IGS20 FIT  IAC
## 2317      0.00000000   900.00000000 60463 0.0000000000000
+   54   G02G03G04G05G06G07G08G09G10G11G12G13G14G15G16G17G18
+        G19G20G21G22G23G24G25G26G27G28G29G30G31G32R01R02R03
+        R04R05R07R08R09R11R12R13R14R15R16R17R18R19R20R21R22
+        R24R25R26  0  0  0  0  0  0  0  0  0  0  0  0  0  0
+          0  0  0  0  0  0  0  0  0  0  0  0  0  0  0  0  0
++         7  5  7  6  6  7  6  6  6  7  6  6  5  5  7  7  6
++         6  8  7  6  7  6  6  6  6  6  5  6  5  6  6  6  7
++         7  5  6  5  6  5  5  5  6  6  6  5  7  6  6  6  4
++         5  6  6  0  0  0  0  0  0  0  0  0  0  0  0  0  0
++         0  0  0  0  0  0  0  0  0  0  0  0  0  0  0  0  0
%c M  cc GPS ccc cccc cccc cccc cccc ccccc ccccc ccccc ccccc
%c cc cc ccc ccc cccc cccc cccc cccc ccccc ccccc ccccc ccccc
%f  0.0000000  0.000000000  0.00000000000  0.000000000000000
%f  0.0000000  0.000000000  0.00000000000  0.000000000000000
%i    0    0    0    0      0      0      0      0         0
%i    0    0    0    0      0      0      0      0         0
/* INFORMATION & ANALYSIS CENTER (IAC)      ULTRA-RAPID DATA
/* S/V CLOCKS ARE ALIGNED TO GNSS TIME                      
/* G:C1WC2W R:C1PC2P E:C1XC5X C:C2IC6I J:C1CC2S             
/* PCV:IGS20_2290 OL/AL:FES2004  NONE     YN ORB:CoN CLK:CoN
*  2024 06 02 10  0  0.00000000
PG02  13135.326105 -21441.977837  -7598.795670   -425.205533
PG03   2682.409600 -14622.517917 -22173.818586    393.921250
PG04   2164.010598 -24780.916372  -9100.698128    374.446361
PG05 -18313.699504   7383.571303  17624.859681   -174.883941
PG06 -18426.225261   -656.332040 -19099.489497    240.874867
PG07  -4345.643828 -16226.354155  20993.197244   -105.612282
PG08   8345.948663 -17956.821591  17382.673210    209.800934
PG09  -7735.130399 -25239.787990   2574.244500    219.247753
PG10  24087.281041  10910.404493   4152.173821    -34.453650
PG11 -22702.376674  10273.322899  -9093.483721   -676.506114
PG12  -5940.891482  14104.396096 -21989.097221   -510.633337
PG13 -13421.912262   9723.758644  20490.861572    655.048150
PG14 -21894.183871 -13407.469845   7263.220291    415.616063
PG15  -6053.705050  19164.018404  16770.193188    165.684195
PG16  21264.178413  -2705.050844  15630.787220   -275.395742
PG17 -12655.652003 -17857.621579 -14515.019799    699.995190
PG18   4171.958710  15392.848524  21214.091137   -619.457699
PG19 -14916.828286  -9220.640179 -20240.404871    490.667836
PG20 -24576.503619   3196.914316   9410.094438    374.378046
PG21  16295.445785 -20037.350773  -2570.513273    117.968885
PG22 -24308.492617 -10267.158239   -380.237420    -21.929496
PG23  16411.167175  15136.677226  14563.090373    240.445911
PG24 -13458.809322  21775.277102  -6637.717454   -474.755618
PG25   5360.950778  16819.054444 -20256.066492    496.736410
PG26  26249.569017   3855.554128   3333.810375    143.528327
PG27  13887.495591  -6364.924389  21399.903833    -26.664678
PG28  17259.999360   2863.422494 -19993.367104   -270.697108
PG29   3444.149971  26269.511522     74.528503   -595.977397
PG30 -14208.793379  -8181.177598  21079.712624   -380.798258
PG31  22341.610942  -6620.637076 -13317.582561   -227.598204
PG32  14697.436416  15234.559482 -15949.784643   -617.290817
PR01  -7817.824332 -21151.345197 -11938.557137     87.201416
PR02 -15418.124277 -19624.659049   5166.993146    -23.147353
PR03 -15183.195281  -6547.163976  19452.328718    101.305125
PR04  -6499.574122   9419.665398  22829.572750    239.241888
PR05   5467.698326  20632.386821  13995.940931    132.449156
PR07  14950.440046   5963.335795 -19760.833891     83.690108
PR08   6330.481347  -9717.462261 -22652.912306     -4.486353
PR09  17151.007756   7136.811606 -17415.884986    189.956145
PR11  20440.425565  -7674.303242  13185.502954     22.732358
PR12   1676.110809 -11118.267930  22924.602486     40.834726
PR13 -14836.560885  -8106.542839  19090.762327    -47.971775
PR14 -25411.563035    678.043774   2275.008978     26.537855
PR15 -19398.203636   8137.006279 -14412.527393     79.218979
PR16  -1932.092636  10970.013333 -22936.477598     26.114384
PR17 -13656.062017   5820.373998 -20729.859309     92.220609
PR18 -14504.339803  19195.380117  -8539.209989    145.036581
PR19  -9622.581427  22736.700986   6398.028106   -278.829642
PR20   4059.995980  12562.484371  21835.927412   -113.821747
PR21  13597.604516  -5574.405866  20850.096902   -105.875551
PR22  14887.208092 -19339.816764   7419.082798    107.018747
PR24  -5365.479794 -12085.007916 -21806.545457    -58.248905
PR25  14225.212787  -5467.637256  20462.317376    -21.438267
PR26   7113.145396  -8667.148116 -22890.420911     -7.152925
*  2024 06 02 10 15  0.00000000
PG02  13840.564506 -21849.075123  -4834.071365   -425.199433
PG03   5075.196309 -13904.398110 -22206.713869    393.937900
PG04   2622.965624 -23658.391399 -11625.509956    374.453759
PG05 -20161.287705   6784.629782  15778.469649   -174.885317
PG06 -16814.287051  -2245.717970 -20407.020371    240.856384
PG07  -2633.142830 -17700.379714  19998.501137   -105.599956
PG08   9078.328471 -15966.598358  18919.583106    209.818140
PG09  -7514.085241 -25444.399859   -275.909010    219.260708
PG10  23464.466820  10887.538104   6943.608418    -34.460467
PG11 -21943.824850   9332.717626 -11618.178475   -676.513849
PG12  -8225.263390  13235.832401 -21785.264082   -510.636324
PG13 -13728.849266   7306.367081  21289.561898    655.050676
PG14 -20891.183168 -13354.644336   9845.745441    415.624337
PG15  -7043.602603  17287.463688  18323.855970    165.687854
PG16  22790.449818  -1925.774090  13537.050447   -275.386401
PG17 -12735.246959 -19467.249000 -12250.720574    699.991308
PG18   2369.841223  16937.718572  20276.495847   -619.462450
PG19 -15122.242984 -11407.460786 -18955.002965    490.673027
PG20 -25464.466053   2833.002866   6766.127162    374.376923
PG21  16664.996682 -19951.005399    344.105360    117.966805
PG22 -24136.119379 -10494.662817   2491.220634    -21.934222
PG23  14668.284133  14809.847211  16600.899332    240.454285
PG24 -14092.911337  21974.426558  -3900.933562   -474.758255
PG25   3126.638800  16278.202749 -21138.273285    496.736954
PG26  26419.221190   4206.925597    570.475023    143.522980
PG27  14531.177440  -3923.834462  21593.701245    -26.666058
PG28  15678.036467   4590.577812 -20952.156788   -270.712353
PG29   3188.687380  26158.313002  -2803.450661   -595.976171
PG30 -12482.818307  -9860.409694  21429.156364   -380.792852
PG31  21277.447032  -5413.226188 -15434.643765   -227.598034
PG32  14949.369496  16959.191999 -13885.880407   -617.289972
PR01  -6937.000763 -19768.337132 -14562.068794     87.202674
PR02 -15800.952502 -19890.180508   1978.805465    -23.147654
PR03 -16568.724220  -8352.893322  17525.479863    101.305579
PR04  -8088.423432   7075.649463  23165.942750    239.243190
PR05   4522.394198  19007.237735  16424.604286    132.449227
PR07  16366.139609   7820.058565 -17912.856735     83.690979
PR08   7942.554570  -7385.017182 -23023.852307     -4.487051
PR09  14890.277523   7363.485423 -19303.826774    189.958261
PR11  21876.108042  -7945.655886  10428.706681     22.730815
PR12   4450.858526 -11404.785952  22407.399783     40.835251
PR13 -12387.804569  -8302.896275  20684.984013    -47.971643
PR14 -24929.345122    746.351414   5425.653585     26.537432
PR15 -21000.571476   8394.968090 -11784.176829     79.218454
PR16  -4714.927979  11275.840699 -22381.664488     26.115058
PR17 -12464.638159   3464.781846 -21974.010758     92.223483
PR18 -13794.490218  18166.851605 -11458.663864    145.038253
PR19  -9709.031794  23364.002509   3222.492843   -278.831013
PR20   2921.706613  14918.454398  20497.511476   -113.823785
PR21  12375.492658  -3219.246715  22069.596268   -105.878798
PR22  14260.646242 -18430.517824  10382.352710    107.015545
PR24  -4302.183470 -14475.846515 -20552.139860    -58.250384
PR25  12968.518299  -3187.114352  21738.145320    -21.466435
PR26   8750.111643  -6342.378001 -23082.182996     -7.152180
EOF
